{
  "type": "FeatureCollection",
  "features": [
    {
      "type": "Feature",
      "properties": {
        "norad_id": 30395,
        "name": "FENGYUN 1C DEB",
        "group": "fengyun-1c-debris",
        "lat": -7.231003137089377,
        "lon": 173.30915809558178,
        "alt_km": 996.4359495121807,
        "timestamp": "2025-12-04T15:47:54.374347+00:00",
        "meta_object_name": "FENGYUN 1C DEB",
        "meta_object_id": "1999-025ADJ",
        "meta_epoch": "2025-12-03T23:44:34.465056",
        "meta_mean_motion": 13.96672174,
        "meta_eccentricity": 0.01608437,
        "meta_inclination": 98.9309,
        "meta_ra_of_asc_node": 353.8027,
        "meta_arg_of_pericenter": 50.2486,
        "meta_mean_anomaly": 13.924,
        "meta_ephemeris_type": 0,
        "meta_classification_type": "U",
        "meta_norad_cat_id": 30395,
        "meta_element_set_no": 999,
        "meta_rev_at_epoch": 95901,
        "meta_bstar": 0.00092115138,
        "meta_mean_motion_dot": 1.382e-05,
        "meta_mean_motion_ddot": 0,
        "tle_line1": "1 30395U 99025ADJ 25337.98928779  .00001382  00000+0  92115-3 0  9998",
        "tle_line2": "2 30395  98.9309 353.8027 0160843  50.2486  13.9240 13.96672174959014"
      },
      "geometry": {
        "type": "Point",
        "coordinates": [
          173.30915809558178,
          -7.231003137089377
        ]
      }
    },
    {
      "type": "Feature",
      "properties": {
        "norad_id": 30396,
        "name": "FENGYUN 1C DEB",
        "group": "fengyun-1c-debris",
        "lat": 41.049641167238384,
        "lon": -22.803141991473655,
        "alt_km": 968.279580288603,
        "timestamp": "2025-12-04T15:47:54.374357+00:00",
        "meta_object_name": "FENGYUN 1C DEB",
        "meta_object_id": "1999-025ADK",
        "meta_epoch": "2025-12-04T05:33:06.373728",
        "meta_mean_motion": 13.87165272,
        "meta_eccentricity": 0.01346602,
        "meta_inclination": 98.2241,
        "meta_ra_of_asc_node": 344.0558,
        "meta_arg_of_pericenter": 153.1355,
        "meta_mean_anomaly": 279.0761,
        "meta_ephemeris_type": 0,
        "meta_classification_type": "U",
        "meta_norad_cat_id": 30396,
        "meta_element_set_no": 999,
        "meta_rev_at_epoch": 95461,
        "meta_bstar": 0.00018665135,
        "meta_mean_motion_dot": 2e-06,
        "meta_mean_motion_ddot": 0,
        "tle_line1": "1 30396U 99025ADK 25338.23132377  .00000200  00000+0  18665-3 0  9995",
        "tle_line2": "2 30396  98.2241 344.0558 0134660 153.1355 279.0761 13.87165272954610"
      },
      "geometry": {
        "type": "Point",
        "coordinates": [
          -22.803141991473655,
          41.049641167238384
        ]
      }
    },
    {
      "type": "Feature",
      "properties": {
        "norad_id": 30397,
        "name": "FENGYUN 1C DEB",
        "group": "fengyun-1c-debris",
        "lat": -42.65997253616573,
        "lon": 135.3592759360701,
        "alt_km": 1006.5021358980985,
        "timestamp": "2025-12-04T15:47:54.374368+00:00",
        "meta_object_name": "FENGYUN 1C DEB",
        "meta_object_id": "1999-025ADL",
        "meta_epoch": "2025-12-03T23:26:50.748864",
        "meta_mean_motion": 13.98542453,
        "meta_eccentricity": 0.01498298,
        "meta_inclination": 98.4061,
        "meta_ra_of_asc_node": 126.903,
        "meta_arg_of_pericenter": 117.0601,
        "meta_mean_anomaly": 12.2042,
        "meta_ephemeris_type": 0,
        "meta_classification_type": "U",
        "meta_norad_cat_id": 30397,
        "meta_element_set_no": 999,
        "meta_rev_at_epoch": 95642,
        "meta_bstar": 0.0020894316,
        "meta_mean_motion_dot": 3.26e-05,
        "meta_mean_motion_ddot": 0,
        "tle_line1": "1 30397U 99025ADL 25337.97697626  .00003260  00000+0  20894-2 0  9994",
        "tle_line2": "2 30397  98.4061 126.9030 0149829 117.0601  12.2042 13.98542453956423"
      },
      "geometry": {
        "type": "Point",
        "coordinates": [
          135.3592759360701,
          -42.65997253616573
        ]
      }
    },
    {
      "type": "Feature",
      "properties": {
        "norad_id": 30398,
        "name": "FENGYUN 1C DEB",
        "group": "fengyun-1c-debris",
        "lat": -47.91985349123963,
        "lon": 44.0461816230272,
        "alt_km": 969.4935318224125,
        "timestamp": "2025-12-04T15:47:54.374379+00:00",
        "meta_object_name": "FENGYUN 1C DEB",
        "meta_object_id": "1999-025ADM",
        "meta_epoch": "2025-12-03T23:05:35.471040",
        "meta_mean_motion": 13.78682812,
        "meta_eccentricity": 0.01731511,
        "meta_inclination": 99.714,
        "meta_ra_of_asc_node": 234.2687,
        "meta_arg_of_pericenter": 318.9654,
        "meta_mean_anomaly": 58.9143,
        "meta_ephemeris_type": 0,
        "meta_classification_type": "U",
        "meta_norad_cat_id": 30398,
        "meta_element_set_no": 999,
        "meta_rev_at_epoch": 94636,
        "meta_bstar": 0.00092188675,
        "meta_mean_motion_dot": 9.99e-06,
        "meta_mean_motion_ddot": 0,
        "tle_line1": "1 30398U 99025ADM 25337.96221610  .00000999  00000+0  92189-3 0  9993",
        "tle_line2": "2 30398  99.7140 234.2687 0173151 318.9654  58.9143 13.78682812946365"
      },
      "geometry": {
        "type": "Point",
        "coordinates": [
          44.0461816230272,
          -47.91985349123963
        ]
      }
    },
    {
      "type": "Feature",
      "properties": {
        "norad_id": 30400,
        "name": "FENGYUN 1C DEB",
        "group": "fengyun-1c-debris",
        "lat": -48.02338180193273,
        "lon": 75.70522381934838,
        "alt_km": 969.752194237878,
        "timestamp": "2025-12-04T15:47:54.374389+00:00",
        "meta_object_name": "FENGYUN 1C DEB",
        "meta_object_id": "1999-025ADP",
        "meta_epoch": "2025-12-04T06:54:14.980896",
        "meta_mean_motion": 14.09713292,
        "meta_eccentricity": 0.02283337,
        "meta_inclination": 99.156,
        "meta_ra_of_asc_node": 265.655,
        "meta_arg_of_pericenter": 359.2331,
        "meta_mean_anomaly": 151.8487,
        "meta_ephemeris_type": 0,
        "meta_classification_type": "U",
        "meta_norad_cat_id": 30400,
        "meta_element_set_no": 999,
        "meta_rev_at_epoch": 95395,
        "meta_bstar": 0.010611525,
        "meta_mean_motion_dot": 0.00023746,
        "meta_mean_motion_ddot": 0,
        "tle_line1": "1 30400U 99025ADP 25338.28767339  .00023746  00000+0  10612-1 0  9990",
        "tle_line2": "2 30400  99.1560 265.6550 0228333 359.2331 151.8487 14.09713292953958"
      },
      "geometry": {
        "type": "Point",
        "coordinates": [
          75.70522381934838,
          -48.02338180193273
        ]
      }
    },
    {
      "type": "Feature",
      "properties": {
        "norad_id": 30401,
        "name": "FENGYUN 1C DEB",
        "group": "fengyun-1c-debris",
        "lat": 79.95418183384388,
        "lon": 152.55691597995911,
        "alt_km": 758.2042910225364,
        "timestamp": "2025-12-04T15:47:54.374400+00:00",
        "meta_object_name": "FENGYUN 1C DEB",
        "meta_object_id": "1999-025ADQ",
        "meta_epoch": "2025-12-03T02:24:03.465504",
        "meta_mean_motion": 14.27979288,
        "meta_eccentricity": 0.01074766,
        "meta_inclination": 98.9477,
        "meta_ra_of_asc_node": 213.7527,
        "meta_arg_of_pericenter": 155.2919,
        "meta_mean_anomaly": 205.3464,
        "meta_ephemeris_type": 0,
        "meta_classification_type": "U",
        "meta_norad_cat_id": 30401,
        "meta_element_set_no": 999,
        "meta_rev_at_epoch": 98166,
        "meta_bstar": 0.00019004,
        "meta_mean_motion_dot": 4.55e-06,
        "meta_mean_motion_ddot": 0,
        "tle_line1": "1 30401U 99025ADQ 25337.10004011  .00000455  00000+0  19004-3 0  9990",
        "tle_line2": "2 30401  98.9477 213.7527 0107476 155.2919 205.3464 14.27979288981669"
      },
      "geometry": {
        "type": "Point",
        "coordinates": [
          152.55691597995911,
          79.95418183384388
        ]
      }
    },
    {
      "type": "Feature",
      "properties": {
        "norad_id": 30403,
        "name": "FENGYUN 1C DEB",
        "group": "fengyun-1c-debris",
        "lat": 80.42463708122919,
        "lon": -14.205752591862616,
        "alt_km": 771.5194750762494,
        "timestamp": "2025-12-04T15:47:54.374410+00:00",
        "meta_object_name": "FENGYUN 1C DEB",
        "meta_object_id": "1999-025ADS",
        "meta_epoch": "2025-12-03T20:48:48.458592",
        "meta_mean_motion": 14.21416883,
        "meta_eccentricity": 0.00753135,
        "meta_inclination": 99.0611,
        "meta_ra_of_asc_node": 56.0613,
        "meta_arg_of_pericenter": 48.9356,
        "meta_mean_anomaly": 311.8295,
        "meta_ephemeris_type": 0,
        "meta_classification_type": "U",
        "meta_norad_cat_id": 30403,
        "meta_element_set_no": 999,
        "meta_rev_at_epoch": 96680,
        "meta_bstar": 0.0036903868,
        "meta_mean_motion_dot": 8.262e-05,
        "meta_mean_motion_ddot": 0,
        "tle_line1": "1 30403U 99025ADS 25337.86722753  .00008262  00000+0  36904-2 0  9996",
        "tle_line2": "2 30403  99.0611  56.0613 0075313  48.9356 311.8295 14.21416883966809"
      },
      "geometry": {
        "type": "Point",
        "coordinates": [
          -14.205752591862616,
          80.42463708122919
        ]
      }
    }
  ]
}